{"type": "FeatureCollection", "features": [ {"type": "Feature", "properties": {"norad_id": 29919, "name": "FENGYUN 1C DEB", "group": "fengyun-1c-debris", "lat": 78.8417391919905, "lon": 89.42544088067842, "alt_km": 938.8357957184035, "timestamp": "2025-12-09T20:37:09.559279+00:00", "meta": {"OBJECT_NAME": "FENGYUN 1C DEB", "OBJECT_ID": "1999-025HR", "EPOCH": "2025-12-09T10:05:02.057280", "MEAN_MOTION": 13.8512126, "ECCENTRICITY": 0.01375151, "INCLINATION": 98.479, "RA_OF_ASC_NODE": 138.1627, "ARG_OF_PERICENTER": 352.9165, "MEAN_ANOMALY": 60.5237, "EPHEMERIS_TYPE": 0, "CLASSIFICATION_TYPE": "U", "NORAD_CAT_ID": 29919, "ELEMENT_SET_NO": 999, "REV_AT_EPOCH": 95489, "BSTAR": 0.00027484242, "MEAN_MOTION_DOT": 2.97e-06, "MEAN_MOTION_DDOT": 0}, "tle": {"line1": "1 29919U 99025HR  25343.42016270  .00000297  00000+0  27484-3 0  9999", "line2": "2 29919  98.4790 138.1627 0137515 352.9165  60.5237 13.85121260954897"}}, "geometry": {"type": "Point", "coordinates": [89.42544088067842, 78.8417391919905]}}, {"type": "Feature", "properties": {"norad_id": 29920, "name": "FENGYUN 1C DEB", "group": "fengyun-1c-debris", "lat": 54.21799208915939, "lon": 30.392202852219295, "alt_km": 963.6093428631284, "timestamp": "2025-12-09T20:37:09.559289+00:00", "meta": {"OBJECT_NAME": "FENGYUN 1C DEB", "OBJECT_ID": "1999-025HS", "EPOCH": "2025-12-09T13:10:30.291744", "MEAN_MOTION": 14.03638912, "ECCENTRICITY": 0.01254576, "INCLINATION": 98.3912, "RA_OF_ASC_NODE": 198.2885, "ARG_OF_PERICENTER": 289.9123, "MEAN_ANOMALY": 68.8565, "EPHEMERIS_TYPE": 0, "CLASSIFICATION_TYPE": "U", "NORAD_CAT_ID": 29920, "ELEMENT_SET_NO": 999, "REV_AT_EPOCH": 96243, "BSTAR": 0.0019565012, "MEAN_MOTION_DOT": 3.255e-05, "MEAN_MOTION_DDOT": 0}, "tle": {"line1": "1 29920U 99025HS  25343.54896171  .00003255  00000+0  19565-2 0  9997", "line2": "2 29920  98.3912 198.2885 0125457 289.9123  68.8565 14.03638912962434"}}, "geometry": {"type": "Point", "coordinates": [30.392202852219295, 54.21799208915939]}}, {"type": "Feature", "properties": {"norad_id": 29921, "name": "FENGYUN 1C DEB", "group": "fengyun-1c-debris", "lat": -69.05443426668961, "lon": 13.891826651551805, "alt_km": 906.8228632978944, "timestamp": "2025-12-09T20:37:09.559299+00:00", "meta": {"OBJECT_NAME": "FENGYUN 1C DEB", "OBJECT_ID": "1999-025HT", "EPOCH": "2025-12-09T11:26:55.659840", "MEAN_MOTION": 14.0663748, "ECCENTRICITY": 0.00464524, "INCLINATION": 98.7867, "RA_OF_ASC_NODE": 349.6879, "ARG_OF_PERICENTER": 78.7429, "MEAN_ANOMALY": 76.7966, "EPHEMERIS_TYPE": 0, "CLASSIFICATION_TYPE": "U", "NORAD_CAT_ID": 29921, "ELEMENT_SET_NO": 999, "REV_AT_EPOCH": 96830, "BSTAR": 0.00072217613, "MEAN_MOTION_DOT": 1.167e-05, "MEAN_MOTION_DDOT": 0}, "tle": {"line1": "1 29921U 99025HT  25343.47703310  .00001167  00000+0  72218-3 0  9997", "line2": "2 29921  98.7867 349.6879 0046452  78.7429  76.7966 14.06637480968300"}}, "geometry": {"type": "Point", "coordinates": [13.891826651551805, -69.05443426668961]}}, {"type": "Feature", "properties": {"norad_id": 29922, "name": "FENGYUN 1C DEB", "group": "fengyun-1c-debris", "lat": 19.355895054113113, "lon": -135.43994766908622, "alt_km": 954.5042669643153, "timestamp": "2025-12-09T20:37:09.559310+00:00", "meta": {"OBJECT_NAME": "FENGYUN 1C DEB", "OBJECT_ID": "1999-025HU", "EPOCH": "2025-12-09T02:41:24.799776", "MEAN_MOTION": 13.98578642, "ECCENTRICITY": 0.00935062, "INCLINATION": 99.1363, "RA_OF_ASC_NODE": 40.5752, "ARG_OF_PERICENTER": 17.0575, "MEAN_ANOMALY": 343.3696, "EPHEMERIS_TYPE": 0, "CLASSIFICATION_TYPE": "U", "NORAD_CAT_ID": 29922, "ELEMENT_SET_NO": 999, "REV_AT_EPOCH": 96390, "BSTAR": 0.00021326065, "MEAN_MOTION_DOT": 2.73e-06, "MEAN_MOTION_DDOT": 0}, "tle": {"line1": "1 29922U 99025HU  25343.11209259  .00000273  00000+0  21326-3 0  9993", "line2": "2 29922  99.1363  40.5752 0093506  17.0575 343.3696 13.98578642963902"}}, "geometry": {"type": "Point", "coordinates": [-135.43994766908622, 19.355895054113113]}}, {"type": "Feature", "properties": {"norad_id": 29923, "name": "FENGYUN 1C DEB", "group": "fengyun-1c-debris", "lat": -22.418991686634854, "lon": 168.6153952552056, "alt_km": 839.9818632045126, "timestamp": "2025-12-09T20:37:09.559321+00:00", "meta": {"OBJECT_NAME": "FENGYUN 1C DEB", "OBJECT_ID": "1999-025HV", "EPOCH": "2025-12-09T11:53:53.125728", "MEAN_MOTION": 14.13884606, "ECCENTRICITY": 0.00174914, "INCLINATION": 98.6883, "RA_OF_ASC_NODE": 351.8791, "ARG_OF_PERICENTER": 178.4393, "MEAN_ANOMALY": 335.4709, "EPHEMERIS_TYPE": 0, "CLASSIFICATION_TYPE": "U", "NORAD_CAT_ID": 29923, "ELEMENT_SET_NO": 999, "REV_AT_EPOCH": 97229, "BSTAR": 0.00076530038, "MEAN_MOTION_DOT": 1.41e-05, "MEAN_MOTION_DDOT": 0}, "tle": {"line1": "1 29923U 99025HV  25343.49575377  .00001410  00000+0  76530-3 0  9993", "line2": "2 29923  98.6883 351.8791 0017491 178.4393 335.4709 14.13884606972291"}}, "geometry": {"type": "Point", "coordinates": [168.6153952552056, -22.418991686634854]}}, {"type": "Feature", "properties": {"norad_id": 29924, "name": "FENGYUN 1C DEB", "group": "fengyun-1c-debris", "lat": -47.632278707617814, "lon": 167.20233583203992, "alt_km": 855.1377042942795, "timestamp": "2025-12-09T20:37:09.559331+00:00", "meta": {"OBJECT_NAME": "FENGYUN 1C DEB", "OBJECT_ID": "1999-025HW", "EPOCH": "2025-12-09T11:45:37.592352", "MEAN_MOTION": 14.08888948, "ECCENTRICITY": 0.00258771, "INCLINATION": 98.7345, "RA_OF_ASC_NODE": 356.5483, "ARG_OF_PERICENTER": 267.2292, "MEAN_ANOMALY": 250.1109, "EPHEMERIS_TYPE": 0, "CLASSIFICATION_TYPE": "U", "NORAD_CAT_ID": 29924, "ELEMENT_SET_NO": 999, "REV_AT_EPOCH": 97162, "BSTAR": 0.0001660731, "MEAN_MOTION_DOT": 2.45e-06, "MEAN_MOTION_DDOT": 0}, "tle": {"line1": "1 29924U 99025HW  25343.49001843  .00000245  00000+0  16607-3 0  9990", "line2": "2 29924  98.7345 356.5483 0025877 267.2292 250.1109 14.08888948971628"}}, "geometry": {"type": "Point", "coordinates": [167.20233583203992, -47.632278707617814]}}, {"type": "Feature", "properties": {"norad_id": 29926, "name": "FENGYUN 1C DEB", "group": "fengyun-1c-debris", "lat": -20.047928865488863, "lon": 149.83291711944855, "alt_km": 838.7068311849725, "timestamp": "2025-12-09T20:37:09.559342+00:00", "meta": {"OBJECT_NAME": "FENGYUN 1C DEB", "OBJECT_ID": "1999-025HY", "EPOCH": "2025-12-09T10:21:33.201792", "MEAN_MOTION": 14.33377788, "ECCENTRICITY": 0.02484464, "INCLINATION": 98.2836, "RA_OF_ASC_NODE": 332.4708, "ARG_OF_PERICENTER": 310.151, "MEAN_ANOMALY": 207.9994, "EPHEMERIS_TYPE": 0, "CLASSIFICATION_TYPE": "U", "NORAD_CAT_ID": 29926, "ELEMENT_SET_NO": 999, "REV_AT_EPOCH": 98533, "BSTAR": 0.00071639894, "MEAN_MOTION_DOT": 2.738e-05, "MEAN_MOTION_DDOT": 0}, "tle": {"line1": "1 29926U 99025HY  25343.43163428  .00002738  00000+0  71640-3 0  9991", "line2": "2 29926  98.2836 332.4708 0248446 310.1510 207.9994 14.33377788985331"}}, "geometry": {"type": "Point", "coordinates": [149.83291711944855, -20.047928865488863]}}, {"type": "Feature", "properties": {"norad_id": 29927, "name": "FENGYUN 1C DEB", "group": "fengyun-1c-debris", "lat": -79.98814167076308, "lon": 122.46338718845654, "alt_km": 645.8707394860376, "timestamp": "2025-12-09T20:37:09.559352+00:00", "meta": {"OBJECT_NAME": "FENGYUN 1C DEB", "OBJECT_ID": "1999-025HZ", "EPOCH": "2025-12-09T13:35:13.559424", "MEAN_MOTION": 14.74363607, "ECCENTRICITY": 0.00176949, "INCLINATION": 99.0842, "RA_OF_ASC_NODE": 7.134, "ARG_OF_PERICENTER": 220.1434, "MEAN_ANOMALY": 291.1806, "EPHEMERIS_TYPE": 0, "CLASSIFICATION_TYPE": "U", "NORAD_CAT_ID": 29927, "ELEMENT_SET_NO": 999, "REV_AT_EPOCH": 98600, "BSTAR": 0.0041990838, "MEAN_MOTION_DOT": 0.00027951, "MEAN_MOTION_DDOT": 0}, "tle": {"line1": "1 29927U 99025HZ  25343.56612916  .00027951  00000+0  41991-2 0  9996", "line2": "2 29927  99.0842   7.1340 0017694 220.1434 291.1806 14.74363607986002"}}, "geometry": {"type": "Point", "coordinates": [122.46338718845654, -79.98814167076308]}}, {"type": "Feature", "properties": {"norad_id": 29928, "name": "FENGYUN 1C DEB", "group": "fengyun-1c-debris", "lat": -12.64155907649163, "lon": -174.12319021142883, "alt_km": 923.6218231890898, "timestamp": "2025-12-09T20:37:09.559363+00:00", "meta": {"OBJECT_NAME": "FENGYUN 1C DEB", "OBJECT_ID": "1999-025JA", "EPOCH": "2025-12-09T00:59:45.134304", "MEAN_MOTION": 13.88075272, "ECCENTRICITY": 0.01434883, "INCLINATION": 99.5847, "RA_OF_ASC_NODE": 7.2093, "ARG_OF_PERICENTER": 112.887, "MEAN_ANOMALY": 314.543, "EPHEMERIS_TYPE": 0, "CLASSIFICATION_TYPE": "U", "NORAD_CAT_ID": 29928, "ELEMENT_SET_NO": 999, "REV_AT_EPOCH": 95440, "BSTAR": 0.00083265322, "MEAN_MOTION_DOT": 1.032e-05, "MEAN_MOTION_DDOT": 0}, "tle": {"line1": "1 29928U 99025JA  25343.04149461  .00001032  00000+0  83265-3 0  9993", "line2": "2 29928  99.5847   7.2093 0143488 112.8870 314.5430 13.88075272954405"}}, "geometry": {"type": "Point", "coordinates": [-174.12319021142883, -12.64155907649163]}}, {"type": "Feature", "properties": {"norad_id": 29929, "name": "FENGYUN 1C DEB", "group": "fengyun-1c-debris", "lat": -77.81108687657877, "lon": -52.105227408826664, "alt_km": 902.3327098197624, "timestamp": "2025-12-09T20:37:09.559373+00:00", "meta": {"OBJECT_NAME": "FENGYUN 1C DEB", "OBJECT_ID": "1999-025JB", "EPOCH": "2025-12-09T13:18:27.366624", "MEAN_MOTION": 14.01346486, "ECCENTRICITY": 0.0131014, "INCLINATION": 98.6241, "RA_OF_ASC_NODE": 262.9724, "ARG_OF_PERICENTER": 185.2216, "MEAN_ANOMALY": 355.855, "EPHEMERIS_TYPE": 0, "CLASSIFICATION_TYPE": "U", "NORAD_CAT_ID": 29929, "ELEMENT_SET_NO": 999, "REV_AT_EPOCH": 95911, "BSTAR": 0.0015114973, "MEAN_MOTION_DOT": 2.415e-05, "MEAN_MOTION_DDOT": 0}, "tle": {"line1": "1 29929U 99025JB  25343.55448341  .00002415  00000+0  15115-2 0  9993", "line2": "2 29929  98.6241 262.9724 0131014 185.2216 355.8550 14.01346486959113"}}, "geometry": {"type": "Point", "coordinates": [-52.105227408826664, -77.81108687657877]}}]}